{"type": "FeatureCollection", "features": [{"type": "Feature", "geometry": {"type": "Point", "coordinates": [-0.558, 38.282]}, "properties": {"name": "Aeropuerto de Alicante-Elche (43 m)", "ind": "LEAL", "omae": "este", "colorMetar": "dodgerblue", "colorTaf": "dodgerblue", "rawMetar": "METAR LEAL 221600Z 10008KT 070V150 CAVOK 31/16 Q1017 NOSIG=\n", "visibility": 10000.0, "ceiling": "NSC", "hazard": "NSW", "rawTaf": "TAF LEAL 221100Z 2212/2312 11010KT 9999 FEW030 </br>&emsp;&emsp;TX34/2212Z TN22/2305Z </br>&emsp;&emsp;BECMG 2218/2220 04006KT </br>&emsp;&emsp;BECMG 2310/2312 10010KT=\n", "typeMetar": "metar", "lng": -0.558, "lat": 38.282, "isNil": "false"}}, {"type": "Feature", "geometry": {"type": "Point", "coordinates": [0.074, 40.214]}, "properties": {"name": "Aeropuerto de Castellon (360 m)", "ind": "LECH", "omae": "este", "colorMetar": "dodgerblue", "colorTaf": "dodgerblue", "rawMetar": "METAR LECH 221600Z AUTO 12009KT 080V150 9000 NCD 30/17 Q1019=\n", "visibility": 9000.0, "ceiling": "NSC", "hazard": "NSW", "rawTaf": "TAF LECH 221100Z 2212/2312 15010KT 9999 FEW030 </br>&emsp;&emsp;TX32/2213Z TN20/2305Z </br>&emsp;&emsp;BECMG 2215/2217 21006KT </br>&emsp;&emsp;PROB40 TEMPO 2213/2301 FEW060CB </br>&emsp;&emsp;BECMG 2310/2312 18010KT=\n", "typeMetar": "auto", "lng": 0.074, "lat": 40.214, "isNil": "false"}}, {"type": "Feature", "geometry": {"type": "Point", "coordinates": [0.535, 41.728]}, "properties": {"name": "Aeropuerto de Lleida (341 m)", "ind": "LEDA", "omae": "este", "colorMetar": "dodgerblue", "colorTaf": "orange", "rawMetar": "METAR LEDA 221600Z 20006KT 160V230 CAVOK 35/15 Q1017=\n", "visibility": 10000.0, "ceiling": "NSC", "hazard": "NSW", "rawTaf": "TAF LEDA 221400Z 2215/2315 VRB04KT 9999 FEW050 </br>&emsp;&emsp;TX40/2314Z TN22/2305Z </br>&emsp;&emsp;TEMPO 2216/2223 VRB15G30KT 3000 TSRA FEW050CB </br>&emsp;&emsp;TEMPO 2216/2223 VRB25G40KT 1500 +TSRAGR SCT050CB=\n", "typeMetar": "metar", "lng": 0.535, "lat": 41.728, "isNil": "false"}}, {"type": "Feature", "geometry": {"type": "Point", "coordinates": [2.76, 41.901]}, "properties": {"name": "Aeropuerto de Girona-Costa Brava (143 m)", "ind": "LEGE", "omae": "este", "colorMetar": "dodgerblue", "colorTaf": "dodgerblue", "rawMetar": "METAR LEGE 221600Z 20006KT 160V230 CAVOK 26/18 Q1018 NOSIG=\n", "visibility": 10000.0, "ceiling": "NSC", "hazard": "NSW", "rawTaf": "TAF LEGE 221100Z 2212/2312 18012KT 9999 FEW040 </br>&emsp;&emsp;TX35/2213Z TN20/2305Z </br>&emsp;&emsp;TEMPO 2215/2218 30015KT FEW060CB </br>&emsp;&emsp;BECMG 2218/2220 VRB04KT=\n", "typeMetar": "metar", "lng": 2.76, "lat": 41.901, "isNil": "false"}}, {"type": "Feature", "geometry": {"type": "Point", "coordinates": [2.105, 41.522]}, "properties": {"name": "Aeropuerto de Sabadell (148 m)", "ind": "LELL", "omae": "este", "colorMetar": "dodgerblue", "colorTaf": "yellow", "rawMetar": "METAR LELL 221600Z 10008KT 060V140 CAVOK 32/17 Q1018=\n", "visibility": 10000.0, "ceiling": "NSC", "hazard": "NSW", "rawTaf": "TAF LELL 221400Z 2215/2315 15010KT 9999 FEW040 </br>&emsp;&emsp;TX38/2313Z TN22/2305Z </br>&emsp;&emsp;PROB30 TEMPO 2215/2220 33015G25KT 3000 TSRA FEW040CB </br>&emsp;&emsp;BECMG 2219/2221 25006KT </br>&emsp;&emsp;BECMG 2311/2313 15010KT=\n", "typeMetar": "metar", "lng": 2.105, "lat": 41.522, "isNil": "false"}}, {"type": "Feature", "geometry": {"type": "Point", "coordinates": [2.078, 41.297]}, "properties": {"name": "Barcelona, El Prat (4 m)", "ind": "LEBL", "omae": "este", "colorMetar": "dodgerblue", "colorTaf": "dodgerblue", "rawMetar": "METAR LEBL 221600Z 20013KT 9999 FEW030 28/23 Q1017 NOSIG=\n", "visibility": 9999.0, "ceiling": "NSC", "hazard": "NSW", "rawTaf": "TAF LEBL 221100Z 2212/2312 21012KT CAVOK </br>&emsp;&emsp;TX31/2212Z TN23/2306Z </br>&emsp;&emsp;PROB40 TEMPO 2212/2215 22015G25KT </br>&emsp;&emsp;TEMPO 2218/2222 32009KT </br>&emsp;&emsp;BECMG 2223/2302 VRB04KT </br>&emsp;&emsp;BECMG 2309/2311 21010KT=\n", "typeMetar": "metar", "lng": 2.078, "lat": 41.297, "isNil": "false"}}, {"type": "Feature", "geometry": {"type": "Point", "coordinates": [1.168, 41.148]}, "properties": {"name": "Aeropuerto de Reus", "ind": "LERS", "omae": "este", "colorMetar": "dodgerblue", "colorTaf": "dodgerblue", "rawMetar": "METAR LERS 221600Z 18006KT 100V240 9999 SCT050 30/18 Q1018=\n", "visibility": 9999.0, "ceiling": "NSC", "hazard": "NSW", "rawTaf": "TAF LERS 221400Z 2215/2315 20009KT 9999 FEW020 </br>&emsp;&emsp;TX33/2313Z TN22/2305Z </br>&emsp;&emsp;PROB30 TEMPO 2215/2224 VRB10KT FEW040CB </br>&emsp;&emsp;BECMG 2216/2218 VRB04KT </br>&emsp;&emsp;BECMG 2308/2310 20009KT=\n", "typeMetar": "metar", "lng": 1.168, "lat": 41.148, "isNil": "false"}}, {"type": "Feature", "geometry": {"type": "Point", "coordinates": [1.415, 42.346]}, "properties": {"name": "Aeropuerto de la Seu Urgell (801 m)", "ind": "LESU", "omae": "este", "colorMetar": "dodgerblue", "colorTaf": "yellow", "rawMetar": "METAR LESU 221600Z 01006KT 330V050 9999 TS RA BKN030 SCT045CB 18/16 Q1025=\n", "visibility": 9999.0, "ceiling": 3000.0, "hazard": [" TS ", " RA"], "rawTaf": "TAF LESU 221446Z 2215/2315 VRB04KT 9999 FEW050 </br>&emsp;&emsp;TX38/2314Z TN15/2305Z </br>&emsp;&emsp;TEMPO 2215/2217 03020G30KT </br>&emsp;&emsp;TEMPO 2215/2221 3000 TSRA FEW050CB </br>&emsp;&emsp;PROB30 TEMPO 2215/2221 3000 TSRAGR SCT050CB </br>&emsp;&emsp;BECMG 2311/2313 20009KT </br>&emsp;&emsp;TEMPO 2314/2315 02010KT FEW040CB=\n", "typeMetar": "metar", "lng": 1.415, "lat": 42.346, "isNil": "true"}}, {"type": "Feature", "geometry": {"type": "Point", "coordinates": [-0.323, 42.081]}, "properties": {"name": "Aeropuerto de Huesca-Pirineos (539 m)", "ind": "LEHC", "omae": "este", "colorMetar": "dodgerblue", "colorTaf": "orange", "rawMetar": "METAR LEHC 221600Z 23004KT 170V280 9999 SCT060CB 34/14 Q1019=\n", "visibility": 9999.0, "ceiling": "NSC", "hazard": "NSW", "rawTaf": "TAF LEHC 221400Z 2215/2315 VRB04KT 9999 FEW040 </br>&emsp;&emsp;TX37/2314Z TN23/2305Z </br>&emsp;&emsp;TEMPO 2216/2223 VRB15G30KT 3000 TSRA FEW050CB </br>&emsp;&emsp;PROB30 TEMPO 2216/2223 VRB30G43KT 1500 +TSRAGR SCT050CB=\n", "typeMetar": "metar", "lng": -0.323, "lat": 42.081, "isNil": "false"}}, {"type": "Feature", "geometry": {"type": "Point", "coordinates": [-1.042, 41.667]}, "properties": {"name": "Aeropuerto de Zaragoza (263 m)", "ind": "LEZG", "omae": "este", "colorMetar": "dodgerblue", "colorTaf": "orange", "rawMetar": "METAR LEZG 221600Z 20010KT 9000 TSRA SCT055CB 25/19 Q1019 NOSIG=\n", "visibility": 9000.0, "ceiling": "NSC", "hazard": [" TSRA"], "rawTaf": "TAF LEZG 221537Z 2215/2312 10008KT 9999 SCT060 </br>&emsp;&emsp;TX38/2312Z TN23/2305Z </br>&emsp;&emsp;TEMPO 2215/2217 20018KT </br>&emsp;&emsp;TEMPO 2215/2221 VRB20G33KT 3000 TSRA FEW060CB </br>&emsp;&emsp;TEMPO 2215/2221 VRB30G43KT 1500 +TSRAGR SCT060CB </br>&emsp;&emsp;TEMPO 2217/2223 14015KT </br>&emsp;&emsp;TEMPO 2300/2307 VRB04KT=\n", "typeMetar": "metar", "lng": -1.042, "lat": 41.667, "isNil": "false"}}, {"type": "Feature", "geometry": {"type": "Point", "coordinates": [-1.218, 40.412]}, "properties": {"name": "Aeropuerto de Teruel (1026 m)", "ind": "LETL", "omae": "este", "colorMetar": "#FF000000", "colorTaf": "yellow", "rawMetar": "METAR LETL 221600Z NIL=\n", "visibility": -2.0, "ceiling": -2.0, "hazard": "NSW", "rawTaf": "TAF LETL 221100Z 2212/2312 VRB04KT 9999 FEW030 </br>&emsp;&emsp;TX35/2214Z TN16/2305Z </br>&emsp;&emsp;TEMPO 2212/2223 VRB20G35KT 3000 TSRA SCT040CB </br>&emsp;&emsp;TEMPO 2215/2224 13012KT </br>&emsp;&emsp;BECMG 2308/2310 18008KT=\n", "typeMetar": "nil", "lng": -1.218, "lat": 40.412, "isNil": "false"}}, {"type": "Feature", "geometry": {"type": "Point", "coordinates": [1.373, 38.873]}, "properties": {"name": "Aeropuerto de Ibiza-San Jose", "ind": "LEIB", "omae": "este", "colorMetar": "dodgerblue", "colorTaf": "dodgerblue", "rawMetar": "METAR LEIB 221600Z 08007KT 040V120 CAVOK 28/21 Q1018 NOSIG=\n", "visibility": 10000.0, "ceiling": "NSC", "hazard": "NSW", "rawTaf": "TAF LEIB 221400Z 2215/2315 10007KT CAVOK </br>&emsp;&emsp;TX31/2312Z TN21/2305Z </br>&emsp;&emsp;PROB30 TEMPO 2310/2314 20008KT=\n", "typeMetar": "metar", "lng": 1.373, "lat": 38.873, "isNil": "false"}}, {"type": "Feature", "geometry": {"type": "Point", "coordinates": [4.219, 39.863]}, "properties": {"name": "Aeropuerto de Mah\u00f3n-Menorca", "ind": "LEMH", "omae": "este", "colorMetar": "dodgerblue", "colorTaf": "dodgerblue", "rawMetar": "METAR LEMH 221600Z 18007KT 120V230 CAVOK 29/18 Q1019=\n", "visibility": 10000.0, "ceiling": "NSC", "hazard": "NSW", "rawTaf": "TAF LEMH 221400Z 2215/2315 VRB04KT CAVOK </br>&emsp;&emsp;TX32/2312Z TN19/2305Z </br>&emsp;&emsp;TEMPO 2215/2217 18008KT </br>&emsp;&emsp;TEMPO 2310/2315 22008KT=\n", "typeMetar": "metar", "lng": 4.219, "lat": 39.863, "isNil": "false"}}, {"type": "Feature", "geometry": {"type": "Point", "coordinates": [-0.485, 39.488]}, "properties": {"name": "Valencia, Manises (73 m)", "ind": "LEVC", "omae": "este", "colorMetar": "dodgerblue", "colorTaf": "dodgerblue", "rawMetar": "METAR LEVC 221600Z 11010KT 080V150 CAVOK 31/18 Q1017 NOSIG=\n", "visibility": 10000.0, "ceiling": "NSC", "hazard": "NSW", "rawTaf": "TAF LEVC 221100Z 2212/2312 12010KT 9999 FEW030 </br>&emsp;&emsp;TX34/2212Z TN23/2305Z </br>&emsp;&emsp;PROB30 TEMPO 2215/2224 FEW080CB </br>&emsp;&emsp;BECMG 2218/2220 05009KT </br>&emsp;&emsp;BECMG 2222/2224 VRB04KT </br>&emsp;&emsp;BECMG 2310/2312 12010KT=\n", "typeMetar": "metar", "lng": -0.485, "lat": 39.488, "isNil": "false"}}, {"type": "Feature", "geometry": {"type": "Point", "coordinates": [2.733, 39.55]}, "properties": {"name": "Aeropuerto de Palma-Son San Joan (8 m)", "ind": "LEPA", "omae": "este", "colorMetar": "dodgerblue", "colorTaf": "dodgerblue", "rawMetar": "METAR LEPA 221600Z 24012KT 220V280 CAVOK 30/22 Q1018 NOSIG=\n", "visibility": 10000.0, "ceiling": "NSC", "hazard": "NSW", "rawTaf": "TAF LEPA 221100Z 2212/2312 24010KT CAVOK </br>&emsp;&emsp;TX33/2212Z TN21/2306Z </br>&emsp;&emsp;BECMG 2218/2220 VRB04KT </br>&emsp;&emsp;BECMG 2309/2311 22010KT=\n", "typeMetar": "metar", "lng": 2.733, "lat": 39.55, "isNil": "false"}}, {"type": "Feature", "geometry": {"type": "Point", "coordinates": [-3.764, 40.697]}, "properties": {"name": "Base de Colmenar Viejo (995 m)", "ind": "LECV", "omae": "interior", "colorMetar": "dodgerblue", "colorTaf": "dodgerblue", "rawMetar": "METAR LECV 221600Z 20009KT 9999 FEW045 31/08 Q1022=\n", "visibility": 9999.0, "ceiling": "NSC", "hazard": "NSW", "rawTaf": "TAF LECV 221100Z 2212/2312 20010KT CAVOK </br>&emsp;&emsp;TX33/2215Z TN19/2306Z </br>&emsp;&emsp;TEMPO 2212/2218 22015G25KT FEW050TCU </br>&emsp;&emsp;TEMPO 2212/2217 TSRA SCT050CB </br>&emsp;&emsp;BECMG 2218/2220 VRB05KT=\n", "typeMetar": "metar", "lng": -3.764, "lat": 40.697, "isNil": "true"}}, {"type": "Feature", "geometry": {"type": "Point", "coordinates": [-3.724, 40.295]}, "properties": {"name": "Base de Getafe (619 m)", "ind": "LEGT", "omae": "interior", "colorMetar": "dodgerblue", "colorTaf": "dodgerblue", "rawMetar": "METAR LEGT 221600Z VRB03KT CAVOK 37/11 Q1018=\n", "visibility": 10000.0, "ceiling": "NSC", "hazard": "NSW", "rawTaf": "TAF LEGT 221100Z 2212/2312 VRB05KT CAVOK </br>&emsp;&emsp;TX39/2215Z TN23/2306Z </br>&emsp;&emsp;TEMPO 2212/2218 22010KT FEW080TCU </br>&emsp;&emsp;TEMPO 2212/2218 20015G25KT </br>&emsp;&emsp;PROB40 TEMPO 2212/2218 TSRA SCT080CB=\n", "typeMetar": "metar", "lng": -3.724, "lat": 40.295, "isNil": "false"}}, {"type": "Feature", "geometry": {"type": "Point", "coordinates": [-3.786, 40.371]}, "properties": {"name": "Madrid, Cuatro Vientos (691 m)", "ind": "LEVS", "omae": "interior", "colorMetar": "dodgerblue", "colorTaf": "dodgerblue", "rawMetar": "METAR LEVS 221600Z 18006KT 120V280 CAVOK 35/11 Q1019=\n", "visibility": 10000.0, "ceiling": "NSC", "hazard": "NSW", "rawTaf": "TAF LEVS 221100Z 2212/2312 VRB05KT CAVOK </br>&emsp;&emsp;TX39/2215Z TN23/2306Z </br>&emsp;&emsp;TEMPO 2212/2218 22010KT FEW080TCU </br>&emsp;&emsp;TEMPO 2212/2218 22015G25KT </br>&emsp;&emsp;PROB40 TEMPO 2212/2218 TSRA SCT080CB=\n", "typeMetar": "metar", "lng": -3.786, "lat": 40.371, "isNil": "false"}}, {"type": "Feature", "geometry": {"type": "Point", "coordinates": [-3.446, 40.497]}, "properties": {"name": "Base de Torrej\u00f3n (617 m)", "ind": "LETO", "omae": "interior", "colorMetar": "dodgerblue", "colorTaf": "dodgerblue", "rawMetar": "METAR LETO 221600Z 22008G18KT 160V300 CAVOK 35/08 Q1018 NOSIG=\n", "visibility": 10000.0, "ceiling": "NSC", "hazard": "NSW", "rawTaf": "TAF LETO 221100Z 2212/2312 VRB05KT CAVOK </br>&emsp;&emsp;TX39/2215Z TN19/2306Z </br>&emsp;&emsp;TEMPO 2212/2218 22010KT FEW080TCU </br>&emsp;&emsp;TEMPO 2212/2217 20015G28KT </br>&emsp;&emsp;PROB40 TEMPO 2212/2218 TSRA SCT080CB=\n", "typeMetar": "metar", "lng": -3.446, "lat": 40.497, "isNil": "false"}}, {"type": "Feature", "geometry": {"type": "Point", "coordinates": [-3.571, 40.473]}, "properties": {"name": "Madrid Barajas (609 m)", "ind": "LEMD", "omae": "interior", "colorMetar": "dodgerblue", "colorTaf": "dodgerblue", "rawMetar": "METAR LEMD 221600Z 21009KT CAVOK 37/09 Q1018 NOSIG=\n", "visibility": 10000.0, "ceiling": "NSC", "hazard": "NSW", "rawTaf": "TAF LEMD 221100Z 2212/2318 VRB05KT CAVOK </br>&emsp;&emsp;TX39/2215Z TN21/2306Z </br>&emsp;&emsp;TEMPO 2212/2217 22010KT FEW080TCU </br>&emsp;&emsp;TEMPO 2212/2218 20015G28KT </br>&emsp;&emsp;PROB40 TEMPO 2212/2218 TSRA SCT080CB=\n", "typeMetar": "metar", "lng": -3.571, "lat": 40.473, "isNil": "false"}}, {"type": "Feature", "geometry": {"type": "Point", "coordinates": [-4.852, 41.706]}, "properties": {"name": "Valladolid, Villanubla (845 m)", "ind": "LEVD", "omae": "interior", "colorMetar": "dodgerblue", "colorTaf": "dodgerblue", "rawMetar": "METAR LEVD 221600Z 23012KT 180V280 9999 FEW060TCU 32/10 Q1019 NOSIG=\n", "visibility": 9999.0, "ceiling": "NSC", "hazard": "NSW", "rawTaf": "TAF LEVD 221400Z 2215/2315 22012KT CAVOK </br>&emsp;&emsp;TX36/2215Z TN17/2305Z </br>&emsp;&emsp;PROB40 TEMPO 2215/2219 22018G28KT FEW050TCU </br>&emsp;&emsp;BECMG 2219/2221 VRB05KT </br>&emsp;&emsp;TEMPO 2300/2303 06010KT=\n", "typeMetar": "metar", "lng": -4.852, "lat": 41.706, "isNil": "false"}}, {"type": "Feature", "geometry": {"type": "Point", "coordinates": [-5.503, 40.952]}, "properties": {"name": "Salamanca, Matacan (791 m)", "ind": "LESA", "omae": "interior", "colorMetar": "dodgerblue", "colorTaf": "dodgerblue", "rawMetar": "METAR LESA 221600Z 26011KT 230V290 CAVOK 31/13 Q1019=\n", "visibility": 10000.0, "ceiling": "NSC", "hazard": "NSW", "rawTaf": "TAF LESA 221400Z 2215/2315 21012KT CAVOK </br>&emsp;&emsp;TX35/2215Z TN17/2305Z </br>&emsp;&emsp;PROB40 TEMPO 2215/2217 22018G28KT </br>&emsp;&emsp;BECMG 2219/2221 VRB04KT=\n", "typeMetar": "metar", "lng": -5.503, "lat": 40.952, "isNil": "false"}}, {"type": "Feature", "geometry": {"type": "Point", "coordinates": [-5.656, 42.589]}, "properties": {"name": "Le\u00f3n, Virgen del Camino (916 m)", "ind": "LELN", "omae": "interior", "colorMetar": "dodgerblue", "colorTaf": "dodgerblue", "rawMetar": "METAR LELN 221600Z 21011KT 170V250 CAVOK 30/08 Q1020=\n", "visibility": 10000.0, "ceiling": "NSC", "hazard": "NSW", "rawTaf": "TAF LELN 221400Z 2215/2315 21010KT CAVOK </br>&emsp;&emsp;TX31/2215Z TN17/2305Z </br>&emsp;&emsp;PROB30 TEMPO 2215/2217 21015G25KT </br>&emsp;&emsp;BECMG 2219/2221 02006KT=\n", "typeMetar": "metar", "lng": -5.656, "lat": 42.589, "isNil": "false"}}, {"type": "Feature", "geometry": {"type": "Point", "coordinates": [-3.613, 42.358]}, "properties": {"name": "Burgos, Villafria (903 m)", "ind": "LEBG", "omae": "interior", "colorMetar": "dodgerblue", "colorTaf": "lime", "rawMetar": "METAR LEBG 221600Z 20012KT 170V240 9999 FEW062TCU 31/09 Q1020=\n", "visibility": 9999.0, "ceiling": "NSC", "hazard": "NSW", "rawTaf": "TAF LEBG 221400Z 2215/2315 21010KT 9999 FEW050 </br>&emsp;&emsp;TX33/2215Z TN14/2305Z </br>&emsp;&emsp;TEMPO 2215/2218 22018G30KT FEW060TCU </br>&emsp;&emsp;PROB40 TEMPO 2215/2220 4000 TSRA SHRA SCT070CB </br>&emsp;&emsp;BECMG 2217/2219 06010KT </br>&emsp;&emsp;PROB40 TEMPO 2223/2308 3000 BR BKN004 BKN009 </br>&emsp;&emsp;PROB30 TEMPO 2301/2307 0800 BCFG BKN002=\n", "typeMetar": "metar", "lng": -3.613, "lat": 42.358, "isNil": "false"}}, {"type": "Feature", "geometry": {"type": "Point", "coordinates": [-1.864, 38.949]}, "properties": {"name": "Base de Albacete, los Llanos (701 m)", "ind": "LEAB", "omae": "interior", "colorMetar": "dodgerblue", "colorTaf": "dodgerblue", "rawMetar": "METAR LEAB 221600Z 16010KT 120V210 9999 FEW060CB 36/09 Q1020 NOSIG=\n", "visibility": 9999.0, "ceiling": "NSC", "hazard": "NSW", "rawTaf": "TAF LEAB 221100Z 2212/2312 16010KT CAVOK </br>&emsp;&emsp;TX38/2215Z TN19/2306Z </br>&emsp;&emsp;PROB30 TEMPO 2215/2222 18015G25KT FEW050TCU FEW052CB </br>&emsp;&emsp;TEMPO 2222/2301 09006KT=\n", "typeMetar": "metar", "lng": -1.864, "lat": 38.949, "isNil": "false"}}, {"type": "Feature", "geometry": {"type": "Point", "coordinates": [-3.976, 38.859]}, "properties": {"name": "Aeropuerto de Ciudad Real (646 m)", "ind": "LERL", "omae": "interior", "colorMetar": "#FF000000", "colorTaf": "dodgerblue", "rawMetar": "METAR LERL 221600Z NIL=\n", "visibility": -2.0, "ceiling": -2.0, "hazard": "NSW", "rawTaf": "TAF LERL 221400Z 2215/2315 VRB05KT CAVOK </br>&emsp;&emsp;TX38/2215Z TN19/2305Z </br>&emsp;&emsp;PROB30 TEMPO 2215/2220 20015G25KT FEW060TCU=\n", "typeMetar": "nil", "lng": -3.976, "lat": 38.859, "isNil": "true"}}, {"type": "Feature", "geometry": {"type": "Point", "coordinates": [-3.741, 38.951]}, "properties": {"name": "Helipuerto de Almagro (622 m)", "ind": "LEAO", "omae": "interior", "colorMetar": "dodgerblue", "colorTaf": "dodgerblue", "rawMetar": "METAR LEAO 221600Z 23006KT 170V330 9999 FEW080TCU 37/09 Q1018=\n", "visibility": 9999.0, "ceiling": "NSC", "hazard": "NSW", "rawTaf": "TAF LEAO 221400Z 2215/2315 VRB05KT CAVOK </br>&emsp;&emsp;TX38/2215Z TN19/2305Z </br>&emsp;&emsp;PROB30 TEMPO 2215/2220 20015G25KT FEW060TCU=\n", "typeMetar": "metar", "lng": -3.741, "lat": 38.951, "isNil": "true"}}, {"type": "Feature", "geometry": {"type": "Point", "coordinates": [-2.321, 42.461]}, "properties": {"name": "Logro\u00f1o, Agoncillo (352 m)", "ind": "LELO", "omae": "interior", "colorMetar": "dodgerblue", "colorTaf": "lime", "rawMetar": "METAR LELO 221600Z VRB02KT 9999 FEW035 35/12 Q1016=\n", "visibility": 9999.0, "ceiling": "NSC", "hazard": "NSW", "rawTaf": "TAF LELO 221400Z 2215/2315 VRB05KT CAVOK </br>&emsp;&emsp;TX37/2215Z TN17/2305Z </br>&emsp;&emsp;TEMPO 2215/2219 VRB18G30KT 4000 TSRA SHRA SCT060CB </br>&emsp;&emsp;TEMPO 2221/2301 05010KT </br>&emsp;&emsp;PROB40 TEMPO 2303/2306 3000 BR BKN004=\n", "typeMetar": "metar", "lng": -2.321, "lat": 42.461, "isNil": "false"}}, {"type": "Feature", "geometry": {"type": "Point", "coordinates": [-1.464, 42.192]}, "properties": {"name": "Bardenas Reales", "ind": "LEBR", "omae": "interior", "colorMetar": "dodgerblue", "colorTaf": "#FF000000", "rawMetar": "METAR LEBR 221600Z AUTO 18005KT 150V210 9999 VCTS //////CB 36/12 Q1016=\n", "visibility": 9999.0, "ceiling": "NSC", "hazard": ["BR"], "rawTaf": "TAF LEBR 221400Z NIL=\n", "typeMetar": "auto", "lng": -1.464, "lat": 42.192, "isNil": "false"}}, {"type": "Feature", "geometry": {"type": "Point", "coordinates": [-6.822, 38.892]}, "properties": {"name": "Badajoz,Talavera La Real (185 m)", "ind": "LEBZ", "omae": "sur", "colorMetar": "dodgerblue", "colorTaf": "dodgerblue", "rawMetar": "METAR LEBZ 221600Z 31010KT 260V350 CAVOK 36/14 Q1015=\n", "visibility": 10000.0, "ceiling": "NSC", "hazard": "NSW", "rawTaf": "TAF LEBZ 221400Z 2215/2315 29010KT CAVOK </br>&emsp;&emsp;TX36/2215Z TN21/2305Z </br>&emsp;&emsp;BECMG 2300/2302 VRB03KT=\n", "typeMetar": "metar", "lng": -6.822, "lat": 38.892, "isNil": "true"}}, {"type": "Feature", "geometry": {"type": "Point", "coordinates": [-5.999, 37.313]}, "properties": {"name": "El Copero (5 m)", "ind": "LEEC", "omae": "sur", "colorMetar": "#FF000000", "colorTaf": "#FF000000", "rawMetar": "METAR LEEC 221600Z NIL=\n", "visibility": -2.0, "ceiling": -2.0, "hazard": "NSW", "rawTaf": "TAF LEEC 221400Z NIL=\n", "typeMetar": "nil", "lng": -5.999, "lat": 37.313, "isNil": "true"}}, {"type": "Feature", "geometry": {"type": "Point", "coordinates": [-5.616, 37.175]}, "properties": {"name": "Base de Mor\u00f3n (86 m)", "ind": "LEMO", "omae": "sur", "colorMetar": "dodgerblue", "colorTaf": "dodgerblue", "rawMetar": "METAR LEMO 221600Z VRB03KT CAVOK 36/15 Q1014 NOSIG=\n", "visibility": 10000.0, "ceiling": "NSC", "hazard": "NSW", "rawTaf": "TAF LEMO 221400Z 2215/2315 26008KT CAVOK </br>&emsp;&emsp;TX37/2216Z TN19/2305Z=\n", "typeMetar": "metar", "lng": -5.616, "lat": 37.175, "isNil": "false"}}, {"type": "Feature", "geometry": {"type": "Point", "coordinates": [-5.899, 37.418]}, "properties": {"name": "Aeropuerto de Sevilla (33 m)", "ind": "LEZL", "omae": "sur", "colorMetar": "dodgerblue", "colorTaf": "dodgerblue", "rawMetar": "METAR LEZL 221600Z 01003KT CAVOK 36/14 Q1014 NOSIG=\n", "visibility": 10000.0, "ceiling": "NSC", "hazard": "NSW", "rawTaf": "TAF LEZL 221400Z 2215/2315 21008KT CAVOK </br>&emsp;&emsp;TX37/2216Z TN22/2306Z=\n", "typeMetar": "metar", "lng": -5.899, "lat": 37.418, "isNil": "false"}}, {"type": "Feature", "geometry": {"type": "Point", "coordinates": [-4.848, 37.844]}, "properties": {"name": "Aeropuerto de C\u00f3rdoba (93 m)", "ind": "LEBA", "omae": "sur", "colorMetar": "dodgerblue", "colorTaf": "dodgerblue", "rawMetar": "METAR LEBA 221600Z 22010KT 190V250 CAVOK 40/08 Q1013=\n", "visibility": 10000.0, "ceiling": "NSC", "hazard": "NSW", "rawTaf": "TAF LEBA 221400Z 2215/2315 22010KT CAVOK </br>&emsp;&emsp;TX40/2215Z TN21/2305Z </br>&emsp;&emsp;TEMPO 2221/2301 VRB03KT </br>&emsp;&emsp;BECMG 2308/2310 08008KT=\n", "typeMetar": "metar", "lng": -4.848, "lat": 37.844, "isNil": "false"}}, {"type": "Feature", "geometry": {"type": "Point", "coordinates": [-6.35, 36.645]}, "properties": {"name": "Base de Rota", "ind": "LERT", "omae": "sur", "colorMetar": "dodgerblue", "colorTaf": "dodgerblue", "rawMetar": "METAR LERT 221600Z 26008KT 230V300 CAVOK 26/20 Q1015 NOSIG=\n", "visibility": 10000.0, "ceiling": "NSC", "hazard": "NSW", "rawTaf": "TAF LERT 221400Z 2215/2315 28007KT CAVOK </br>&emsp;&emsp;TX28/2313Z TN22/2305Z </br>&emsp;&emsp;BECMG 2222/2224 21010KT=\n", "typeMetar": "metar", "lng": -6.35, "lat": 36.645, "isNil": "false"}}, {"type": "Feature", "geometry": {"type": "Point", "coordinates": [-6.06, 36.745]}, "properties": {"name": "Aeropuerto de Jerez", "ind": "LEJR", "omae": "sur", "colorMetar": "dodgerblue", "colorTaf": "dodgerblue", "rawMetar": "METAR LEJR 221600Z 28008KT 240V320 CAVOK 33/18 Q1014=\n", "visibility": 10000.0, "ceiling": "NSC", "hazard": "NSW", "rawTaf": "TAF LEJR 221400Z 2215/2315 22010KT CAVOK </br>&emsp;&emsp;TX36/2314Z TN20/2305Z </br>&emsp;&emsp;TEMPO 2304/2308 VRB03KT=\n", "typeMetar": "metar", "lng": -6.06, "lat": 36.745, "isNil": "false"}}, {"type": "Feature", "geometry": {"type": "Point", "coordinates": [-5.306, 35.893]}, "properties": {"name": "Ceuta, Helipuerto (3 m)", "ind": "GECE", "omae": "sur", "colorMetar": "dodgerblue", "colorTaf": "dodgerblue", "rawMetar": "METAR GECE 221600Z AUTO 07007KT 020V160 CAVOK 27/22 Q1016=\n", "visibility": 10000.0, "ceiling": "NSC", "hazard": "NSW", "rawTaf": "TAF GECE 221400Z 2215/2315 09006KT 9999 FEW020 </br>&emsp;&emsp;TX28/2314Z TN22/2305Z=\n", "typeMetar": "auto", "lng": -5.306, "lat": 35.893, "isNil": "false"}}, {"type": "Feature", "geometry": {"type": "Point", "coordinates": [-4.501, 36.686]}, "properties": {"name": "Aeropuerto de M\u00e1laga (15 m)", "ind": "LEMG", "omae": "sur", "colorMetar": "dodgerblue", "colorTaf": "dodgerblue", "rawMetar": "METAR LEMG 221600Z 13007KT 070V200 CAVOK 30/16 Q1016 NOSIG=\n", "visibility": 10000.0, "ceiling": "NSC", "hazard": "NSW", "rawTaf": "TAF LEMG 221100Z 2212/2312 13010KT CAVOK </br>&emsp;&emsp;TX32/2213Z TN21/2306Z </br>&emsp;&emsp;BECMG 2218/2220 VRB02KT </br>&emsp;&emsp;BECMG 2308/2310 14010KT=\n", "typeMetar": "metar", "lng": -4.501, "lat": 36.686, "isNil": "false"}}, {"type": "Feature", "geometry": {"type": "Point", "coordinates": [-3.636, 37.133]}, "properties": {"name": "Base de Armilla-Granada (701 m)", "ind": "LEGA", "omae": "sur", "colorMetar": "#FF000000", "colorTaf": "#FF000000", "rawMetar": "METAR LEGA 221600Z NIL=\n", "visibility": -2.0, "ceiling": -2.0, "hazard": "NSW", "rawTaf": "TAF LEGA 221100Z NIL=\n", "typeMetar": "nil", "lng": -3.636, "lat": 37.133, "isNil": "true"}}, {"type": "Feature", "geometry": {"type": "Point", "coordinates": [-3.777, 37.189]}, "properties": {"name": "Aeropuerto de Granada-Ja\u00e9n (566 m)", "ind": "LEGR", "omae": "sur", "colorMetar": "dodgerblue", "colorTaf": "dodgerblue", "rawMetar": "METAR LEGR 221600Z 17011KT 140V210 9999 FEW070CB 37/08 Q1017=\n", "visibility": 9999.0, "ceiling": "NSC", "hazard": ["GR"], "rawTaf": "TAF LEGR 221100Z 2212/2312 15011KT CAVOK </br>&emsp;&emsp;TX39/2215Z TN18/2305Z </br>&emsp;&emsp;PROB40 TEMPO 2212/2218 FEW060CB </br>&emsp;&emsp;BECMG 2220/2222 VRB03KT </br>&emsp;&emsp;BECMG 2308/2310 15010KT=\n", "typeMetar": "metar", "lng": -3.777, "lat": 37.189, "isNil": "false"}}, {"type": "Feature", "geometry": {"type": "Point", "coordinates": [-2.37, 36.845]}, "properties": {"name": "Aeropuerto de Almer\u00eda (21 m)", "ind": "LEAM", "omae": "sur", "colorMetar": "dodgerblue", "colorTaf": "dodgerblue", "rawMetar": "METAR LEAM 221600Z 10012KT 070V130 CAVOK 38/09 Q1015=\n", "visibility": 10000.0, "ceiling": "NSC", "hazard": "NSW", "rawTaf": "TAF LEAM 221504Z 2215/2312 10010KT CAVOK </br>&emsp;&emsp;TX38/2215Z TN25/2305Z </br>&emsp;&emsp;BECMG 2223/2301 34009KT </br>&emsp;&emsp;BECMG 2310/2312 11010KT=\n", "typeMetar": "metar", "lng": -2.37, "lat": 36.845, "isNil": "false"}}, {"type": "Feature", "geometry": {"type": "Point", "coordinates": [-2.957, 35.28]}, "properties": {"name": "Aeropuerto de Melilla (47 m)", "ind": "GEML", "omae": "sur", "colorMetar": "dodgerblue", "colorTaf": "dodgerblue", "rawMetar": "METAR GEML 221600Z 13007KT 080V180 9999 FEW012 28/22 Q1015=\n", "visibility": 9999.0, "ceiling": "NSC", "hazard": "NSW", "rawTaf": "TAF GEML 221100Z 2212/2312 09010KT 9999 FEW010 </br>&emsp;&emsp;TX30/2213Z TN23/2306Z </br>&emsp;&emsp;BECMG 2218/2220 VRB02KT </br>&emsp;&emsp;BECMG 2305/2307 09010KT=\n", "typeMetar": "metar", "lng": -2.957, "lat": 35.28, "isNil": "false"}}, {"type": "Feature", "geometry": {"type": "Point", "coordinates": [-0.812, 37.775]}, "properties": {"name": "Base de San Javier (8 m)", "ind": "LELC", "omae": "sur", "colorMetar": "dodgerblue", "colorTaf": "dodgerblue", "rawMetar": "METAR LELC 221600Z 11008KT 080V160 CAVOK 31/20 Q1017 NOSIG=\n", "visibility": 10000.0, "ceiling": "NSC", "hazard": "NSW", "rawTaf": "TAF LELC 221100Z 2212/2312 10010KT CAVOK </br>&emsp;&emsp;TX32/2213Z TN24/2305Z </br>&emsp;&emsp;BECMG 2218/2220 03008KT </br>&emsp;&emsp;BECMG 2309/2311 10010KT=\n", "typeMetar": "metar", "lng": -0.812, "lat": 37.775, "isNil": "false"}}, {"type": "Feature", "geometry": {"type": "Point", "coordinates": [-1.231, 37.952]}, "properties": {"name": "Base de Alcantarilla (76 m)", "ind": "LERI", "omae": "sur", "colorMetar": "dodgerblue", "colorTaf": "dodgerblue", "rawMetar": "METAR LERI 221600Z 13011KT 090V170 CAVOK 36/10 Q1016 NOSIG=\n", "visibility": 10000.0, "ceiling": "NSC", "hazard": "NSW", "rawTaf": "TAF LERI 221100Z 2212/2312 VRB03KT CAVOK </br>&emsp;&emsp;TX38/2214Z TN22/2305Z </br>&emsp;&emsp;BECMG 2212/2214 12010KT </br>&emsp;&emsp;BECMG 2220/2222 VRB03KT=\n", "typeMetar": "metar", "lng": -1.231, "lat": 37.952, "isNil": "true"}}, {"type": "Feature", "geometry": {"type": "Point", "coordinates": [-1.125, 37.804]}, "properties": {"name": "Aeropuerto Regi\u00f3n de Murcia (196 m)", "ind": "LEMI", "omae": "sur", "colorMetar": "dodgerblue", "colorTaf": "dodgerblue", "rawMetar": "METAR LEMI 221600Z 11010KT 060V150 CAVOK 33/11 Q1018=\n", "visibility": 10000.0, "ceiling": "NSC", "hazard": "NSW", "rawTaf": "TAF LEMI 221100Z 2212/2312 12010KT CAVOK </br>&emsp;&emsp;TX35/2215Z TN22/2305Z </br>&emsp;&emsp;BECMG 2218/2220 01008KT=\n", "typeMetar": "metar", "lng": -1.125, "lat": 37.804, "isNil": "false"}}, {"type": "Feature", "geometry": {"type": "Point", "coordinates": [-6.037, 43.564]}, "properties": {"name": "Aeropuerto de Asturias", "ind": "LEAS", "omae": "norte", "colorMetar": "dodgerblue", "colorTaf": "lime", "rawMetar": "METAR LEAS 221600Z 01007KT 320V080 9999 FEW014 BKN028 20/17 Q1021 NOSIG=\n", "visibility": 9999.0, "ceiling": 2800.0, "hazard": "NSW", "rawTaf": "TAF LEAS 221400Z 2215/2315 06009KT 9999 FEW010 BKN016 </br>&emsp;&emsp;TX20/2215Z TN17/2224Z </br>&emsp;&emsp;PROB30 TEMPO 2215/2303 36010KT BKN010 </br>&emsp;&emsp;PROB30 TEMPO 2222/2308 3000 BR BKN005 </br>&emsp;&emsp;PROB40 TEMPO 2303/2315 BKN010=\n", "typeMetar": "metar", "lng": -6.037, "lat": 43.564, "isNil": "false"}}, {"type": "Feature", "geometry": {"type": "Point", "coordinates": [-3.823, 43.427]}, "properties": {"name": "Aeropuerto de Santander", "ind": "LEXJ", "omae": "norte", "colorMetar": "white", "colorTaf": "yellow", "rawMetar": "METAR LEXJ 221600Z VRB01KT 9999 OVC024 21/18 Q1020=\n", "visibility": 9999.0, "ceiling": 2400.0, "hazard": "NSW", "rawTaf": "TAF LEXJ 221400Z 2215/2315 05009KT 9999 FEW010 BKN016 </br>&emsp;&emsp;TX23/2313Z TN19/2305Z </br>&emsp;&emsp;PROB30 TEMPO 2215/2218 BKN010 </br>&emsp;&emsp;PROB30 TEMPO 2217/2221 3000 TSRA SCT060CB </br>&emsp;&emsp;PROB40 TEMPO 2308/2315 BKN010=\n", "typeMetar": "metar", "lng": -3.823, "lat": 43.427, "isNil": "false"}}, {"type": "Feature", "geometry": {"type": "Point", "coordinates": [-8.627, 42.232]}, "properties": {"name": "Vigo, Peinador", "ind": "LEVX", "omae": "norte", "colorMetar": "dodgerblue", "colorTaf": "dodgerblue", "rawMetar": "METAR LEVX 221600Z 25012KT 210V280 CAVOK 23/16 Q1019 NOSIG=\n", "visibility": 10000.0, "ceiling": "NSC", "hazard": "NSW", "rawTaf": "TAF LEVX 221100Z 2212/2312 28009KT CAVOK </br>&emsp;&emsp;TX33/2312Z TN15/2305Z </br>&emsp;&emsp;PROB40 TEMPO 2220/2302 36010KT=\n", "typeMetar": "metar", "lng": -8.627, "lat": 42.232, "isNil": "false"}}, {"type": "Feature", "geometry": {"type": "Point", "coordinates": [-8.415, 42.896]}, "properties": {"name": "Santiago de Compostela", "ind": "LEST", "omae": "norte", "colorMetar": "dodgerblue", "colorTaf": "dodgerblue", "rawMetar": "METAR LEST 221600Z 36011KT 320V030 9999 FEW040 24/15 Q1020 NOSIG=\n", "visibility": 9999.0, "ceiling": "NSC", "hazard": "NSW", "rawTaf": "TAF LEST 221100Z 2212/2312 01009KT 9999 FEW020 </br>&emsp;&emsp;TX28/2312Z TN13/2304Z </br>&emsp;&emsp;PROB40 TEMPO 2222/2308 3000 BR BKN005 </br>&emsp;&emsp;PROB30 TEMPO 2301/2306 0800 BCFG BKN002=\n", "typeMetar": "metar", "lng": -8.415, "lat": 42.896, "isNil": "false"}}, {"type": "Feature", "geometry": {"type": "Point", "coordinates": [-8.379, 43.302]}, "properties": {"name": "A Coru\u00f1a, Alvedro", "ind": "LECO", "omae": "norte", "colorMetar": "dodgerblue", "colorTaf": "dodgerblue", "rawMetar": "METAR LECO 221600Z 36009KT 290V050 9999 FEW025 21/15 Q1021 NOSIG=\n", "visibility": 9999.0, "ceiling": "NSC", "hazard": "NSW", "rawTaf": "TAF LECO 221400Z 2215/2315 35009KT 9999 FEW020 </br>&emsp;&emsp;TX27/2315Z TN14/2304Z </br>&emsp;&emsp;PROB40 TEMPO 2221/2309 3000 BR BKN005 </br>&emsp;&emsp;PROB30 TEMPO 2303/2308 0800 BCFG BKN002=\n", "typeMetar": "metar", "lng": -8.379, "lat": 43.302, "isNil": "false"}}, {"type": "Feature", "geometry": {"type": "Point", "coordinates": [-2.911, 43.302]}, "properties": {"name": "Bilbao,Aeropuerto de Sondica", "ind": "LEBB", "omae": "norte", "colorMetar": "white", "colorTaf": "yellow", "rawMetar": "METAR LEBB 221600Z 33006KT 300V020 9999 OVC016 21/19 Q1020 NOSIG=\n", "visibility": 9999.0, "ceiling": 1600.0, "hazard": "NSW", "rawTaf": "TAF LEBB 221100Z 2212/2312 32005KT 9999 FEW010 BKN020 </br>&emsp;&emsp;TX25/2213Z TN19/2304Z </br>&emsp;&emsp;PROB40 TEMPO 2212/2220 02010KT </br>&emsp;&emsp;PROB30 TEMPO 2212/2217 BKN010 </br>&emsp;&emsp;PROB40 TEMPO 2216/2221 3000 TSRA SCT060CB </br>&emsp;&emsp;PROB30 TEMPO 2300/2312 BKN010=\n", "typeMetar": "metar", "lng": -2.911, "lat": 43.302, "isNil": "false"}}, {"type": "Feature", "geometry": {"type": "Point", "coordinates": [-1.791, 43.357]}, "properties": {"name": "San Sebasti\u00e1n,Aeropuerto de Fuenterrab\u00eda", "ind": "LESO", "omae": "norte", "colorMetar": "white", "colorTaf": "yellow", "rawMetar": "METAR LESO 221600Z 30003KT 240V010 9999 OVC018 22/19 Q1019=\n", "visibility": 9999.0, "ceiling": 1800.0, "hazard": "NSW", "rawTaf": "TAF LESO 221100Z 2212/2312 02009KT 9999 FEW010 BKN020 </br>&emsp;&emsp;TX26/2312Z TN21/2305Z </br>&emsp;&emsp;PROB30 TEMPO 2215/2221 3000 TSRA BKN010 SCT060CB </br>&emsp;&emsp;PROB40 TEMPO 2221/2309 BKN010 </br>&emsp;&emsp;PROB40 TEMPO 2307/2312 08010KT=\n", "typeMetar": "metar", "lng": -1.791, "lat": 43.357, "isNil": "false"}}, {"type": "Feature", "geometry": {"type": "Point", "coordinates": [-1.647, 42.77]}, "properties": {"name": "Pamplona, Noa\u00edn", "ind": "LEPP", "omae": "norte", "colorMetar": "dodgerblue", "colorTaf": "yellow", "rawMetar": "METAR LEPP 221600Z 20005KT 120V290 CAVOK 35/14 Q1017=\n", "visibility": 10000.0, "ceiling": "NSC", "hazard": "NSW", "rawTaf": "TAF LEPP 221400Z 2215/2315 20007KT CAVOK </br>&emsp;&emsp;TX33/2315Z TN17/2305Z </br>&emsp;&emsp;TEMPO 2215/2219 VRB25G40KT 3000 TSRA SCT060CB </br>&emsp;&emsp;PROB40 TEMPO 2215/2218 VRB35G45KT 3000 +TSGR BKN060CB </br>&emsp;&emsp;PROB30 TEMPO 2219/2224 VRB15G25KT 3000 TSRA SCT060CB=\n", "typeMetar": "metar", "lng": -1.647, "lat": 42.77, "isNil": "false"}}, {"type": "Feature", "geometry": {"type": "Point", "coordinates": [-2.727, 42.885]}, "properties": {"name": "Vitoria, Foronda", "ind": "LEVT", "omae": "norte", "colorMetar": "dodgerblue", "colorTaf": "orange", "rawMetar": "METAR LEVT 221600Z 36008KT 320V040 9999 FEW015 25/19 Q1019=\n", "visibility": 9999.0, "ceiling": "NSC", "hazard": "NSW", "rawTaf": "TAF LEVT 221100Z 2212/2312 03009KT 9999 FEW025 </br>&emsp;&emsp;TX31/2213Z TN15/2304Z </br>&emsp;&emsp;TEMPO 2213/2220 VRB15G25KT 3000 TSRA SCT060CB </br>&emsp;&emsp;PROB30 TEMPO 2213/2220 VRB25G35KT 1500 +TSGR BKN060CB </br>&emsp;&emsp;PROB40 TEMPO 2220/2308 1500 BCFG BKN005 </br>&emsp;&emsp;PROB30 TEMPO 2223/2307 0350 FG VV001=\n", "typeMetar": "metar", "lng": -2.727, "lat": 42.885, "isNil": "false"}}, {"type": "Feature", "geometry": {"type": "Point", "coordinates": [-17.756, 28.626]}, "properties": {"name": "La Palma, Aeropuerto El Mazo", "ind": "GCLA", "omae": "canarias", "colorMetar": "dodgerblue", "colorTaf": "dodgerblue", "rawMetar": "METAR GCLA 221600Z 01014KT 320V040 9999 FEW027 25/18 Q1021=\n", "visibility": 9999.0, "ceiling": "NSC", "hazard": "NSW", "rawTaf": "TAF GCLA 221400Z 2215/2315 01013KT 9999 FEW025 </br>&emsp;&emsp;TX24/2314Z TN19/2306Z=\n", "typeMetar": "metar", "lng": -17.756, "lat": 28.626, "isNil": "false"}}, {"type": "Feature", "geometry": {"type": "Point", "coordinates": [-17.888, 27.815]}, "properties": {"name": "El Hierro, Aeropuerto Los Cangrejos", "ind": "GCHI", "omae": "canarias", "colorMetar": "dodgerblue", "colorTaf": "dodgerblue", "rawMetar": "METAR GCHI 221600Z 36014KT 330V040 9999 FEW025 24/18 Q1021=\n", "visibility": 9999.0, "ceiling": "NSC", "hazard": "NSW", "rawTaf": "TAF GCHI 221400Z 2215/2315 01018KT 9999 FEW025 </br>&emsp;&emsp;TX25/2314Z TN20/2306Z </br>&emsp;&emsp;PROB40 TEMPO 2215/2315 36020G30KT=\n", "typeMetar": "metar", "lng": -17.888, "lat": 27.815, "isNil": "false"}}, {"type": "Feature", "geometry": {"type": "Point", "coordinates": [-17.215, 28.03]}, "properties": {"name": "Aeropuerto de La Gomera", "ind": "GCGM", "omae": "canarias", "colorMetar": "dodgerblue", "colorTaf": "dodgerblue", "rawMetar": "METAR GCGM 221600Z 23008KT 200V260 9999 FEW020 24/17 Q1020 RMK R09/VRB06KT ARP/22006KT 140V290=\n", "visibility": 9999.0, "ceiling": "NSC", "hazard": "NSW", "rawTaf": "TAF GCGM 221400Z 2215/2315 22008KT 9999 FEW025 </br>&emsp;&emsp;TX26/2314Z TN19/2306Z </br>&emsp;&emsp;TEMPO 2216/2315 36012KT </br>&emsp;&emsp;TEMPO 2216/2315 VRB15G25KT </br>&emsp;&emsp;PROB30 TEMPO 2300/2312 VRB15G30KT=\n", "typeMetar": "metar", "lng": -17.215, "lat": 28.03, "isNil": "false"}}, {"type": "Feature", "geometry": {"type": "Point", "coordinates": [-16.573, 28.045]}, "properties": {"name": "Aeropuerto de Tenerife Sur", "ind": "GCTS", "omae": "canarias", "colorMetar": "dodgerblue", "colorTaf": "dodgerblue", "rawMetar": "METAR GCTS 221600Z 08025KT 9999 FEW033 25/16 Q1019 WS R07 NOSIG=\n", "visibility": 9999.0, "ceiling": "NSC", "hazard": "NSW", "rawTaf": "TAF GCTS 221400Z 2215/2315 08024KT 9999 FEW030 </br>&emsp;&emsp;TX28/2314Z TN19/2306Z </br>&emsp;&emsp;PROB30 TEMPO 2215/2221 09026G38KT </br>&emsp;&emsp;BECMG 2222/2224 05012KT </br>&emsp;&emsp;BECMG 2309/2311 08022KT </br>&emsp;&emsp;PROB30 TEMPO 2309/2315 08025G35KT=\n", "typeMetar": "metar", "lng": -16.573, "lat": 28.045, "isNil": "false"}}, {"type": "Feature", "geometry": {"type": "Point", "coordinates": [-16.342, 28.483]}, "properties": {"name": "Aeropuerto de Tenerife Norte,Los Rodeos", "ind": "GCXO", "omae": "canarias", "colorMetar": "dodgerblue", "colorTaf": "yellow", "rawMetar": "METAR GCXO 221600Z 31021KT 9999 FEW003 SCT015 20/15 Q1022 NOSIG=\n", "visibility": 9999.0, "ceiling": "NSC", "hazard": "NSW", "rawTaf": "TAF GCXO 221400Z 2215/2315 31016KT 9999 SCT010 </br>&emsp;&emsp;TX21/2314Z TN15/2306Z </br>&emsp;&emsp;TEMPO 2215/2218 33020G30KT </br>&emsp;&emsp;PROB30 TEMPO 2218/2315 31015G25KT </br>&emsp;&emsp;PROB30 TEMPO 2218/2309 3000 BCFG BKN004=\n", "typeMetar": "metar", "lng": -16.342, "lat": 28.483, "isNil": "false"}}, {"type": "Feature", "geometry": {"type": "Point", "coordinates": [-8.681, 41.248]}, "properties": {"name": "Porto", "ind": "LPPR", "omae": "int", "colorMetar": "dodgerblue", "colorTaf": "dodgerblue", "rawMetar": "METAR LPPR 221600Z 32014KT 290V350 CAVOK 21/17 Q1018=\n", "visibility": 10000.0, "ceiling": "NSC", "hazard": "NSW", "rawTaf": "TAF LPPR 221100Z 2212/2312 32012KT 9999 FEW020 </br>&emsp;&emsp;BECMG 2220/2223 VRB02KT </br>&emsp;&emsp;BECMG 2310/2312 23010KT=\n", "typeMetar": "metar", "lng": -8.681, "lat": 41.248, "isNil": "true"}}, {"type": "Feature", "geometry": {"type": "Point", "coordinates": [-9.136, 38.781]}, "properties": {"name": "Lisboa Humberto Delgado", "ind": "LPPT", "omae": "int", "colorMetar": "dodgerblue", "colorTaf": "dodgerblue", "rawMetar": "METAR LPPT 221600Z 36012KT 9999 FEW033 23/14 Q1018=\n", "visibility": 9999.0, "ceiling": "NSC", "hazard": "NSW", "rawTaf": "TAF LPPT 221100Z 2212/2318 33015KT CAVOK </br>&emsp;&emsp;BECMG 2223/2301 33007KT 9999 SCT012 </br>&emsp;&emsp;PROB30 TEMPO 2302/2307 BKN006 </br>&emsp;&emsp;BECMG 2304/2306 VRB05KT </br>&emsp;&emsp;BECMG 2310/2312 12007KT FEW040 </br>&emsp;&emsp;BECMG 2314/2317 29010KT=\n", "typeMetar": "metar", "lng": -9.136, "lat": 38.781, "isNil": "true"}}, {"type": "Feature", "geometry": {"type": "Point", "coordinates": [-7.932, 38.079]}, "properties": {"name": "Beja", "ind": "LPBJ", "omae": "int", "colorMetar": "dodgerblue", "colorTaf": "dodgerblue", "rawMetar": "METAR LPBJ 221600Z VRB04KT CAVOK 33/11 Q1016=\n", "visibility": 10000.0, "ceiling": "NSC", "hazard": "NSW", "rawTaf": "TAF LPBJ 221101Z 2212/2312 31008KT CAVOK </br>&emsp;&emsp;BECMG 2302/2304 VRB05KT </br>&emsp;&emsp;PROB30 TEMPO 2302/2308 5000 VCFG SCT004 </br>&emsp;&emsp;PROB30 TEMPO 2309/2312 4000 TSRA FEW045CB=\n", "typeMetar": "metar", "lng": -7.932, "lat": 38.079, "isNil": "true"}}, {"type": "Feature", "geometry": {"type": "Point", "coordinates": [-7.966, 37.015]}, "properties": {"name": "Faro", "ind": "LPFR", "omae": "int", "colorMetar": "dodgerblue", "colorTaf": "dodgerblue", "rawMetar": "METAR LPFR 221600Z 21006KT 170V230 CAVOK 27/17 Q1015=\n", "visibility": 10000.0, "ceiling": "NSC", "hazard": "NSW", "rawTaf": "TAF LPFR 221100Z 2212/2312 19008KT CAVOK </br>&emsp;&emsp;BECMG 2213/2215 24012KT </br>&emsp;&emsp;BECMG 2218/2220 28008KT </br>&emsp;&emsp;BECMG 2221/2223 VRB02KT </br>&emsp;&emsp;BECMG 2302/2304 06008KT 9999 SCT030 </br>&emsp;&emsp;BECMG 2310/2312 19008KT=\n", "typeMetar": "metar", "lng": -7.966, "lat": 37.015, "isNil": "true"}}, {"type": "Feature", "geometry": {"type": "Point", "coordinates": [-5.918, 35.728]}, "properties": {"name": "T\u00e1nger", "ind": "GMTT", "omae": "int", "colorMetar": "dodgerblue", "colorTaf": "dodgerblue", "rawMetar": "METAR GMTT 221600Z 04012KT CAVOK 29/21 Q1014 NOSIG=\n", "visibility": 10000.0, "ceiling": "NSC", "hazard": "NSW", "rawTaf": "TAF GMTT 221100Z 2212/2318 27006KT CAVOK=\n", "typeMetar": "metar", "lng": -5.918, "lat": 35.728, "isNil": "true"}}, {"type": "Feature", "geometry": {"type": "Point", "coordinates": [-3.84, 35.177]}, "properties": {"name": "Al-Hoceima, Cote", "ind": "GMTA", "omae": "int", "colorMetar": "dodgerblue", "colorTaf": "dodgerblue", "rawMetar": "METAR GMTA 221600Z 34009KT 290V360 8000 FEW020 27/24 Q1015 NOSIG=\n", "visibility": 8000.0, "ceiling": "NSC", "hazard": "NSW", "rawTaf": "TAF GMTA 221100Z 2212/2318 02011KT 8000 NSC=\n", "typeMetar": "metar", "lng": -3.84, "lat": 35.177, "isNil": "true"}}, {"type": "Feature", "geometry": {"type": "Point", "coordinates": [-5.349, 36.151]}, "properties": {"name": "Gibraltar, Aeropuerto", "ind": "LXGB", "omae": "int", "colorMetar": "dodgerblue", "colorTaf": "dodgerblue", "rawMetar": "METAR LXGB 221550Z 08007KT CAVOK 27/20 Q1016 NOSIG=\n", "visibility": 10000.0, "ceiling": "NSC", "hazard": "NSW", "rawTaf": "TAF LXGB 221324Z 2215/2222 10010KT CAVOK=\n", "typeMetar": "metar", "lng": -5.349, "lat": 36.151, "isNil": "true"}}, {"type": "Feature", "geometry": {"type": "Point", "coordinates": [-5.441, 36.129]}, "properties": {"name": "Algeciras, Helipuerto", "ind": "LEAG", "omae": "sur", "colorMetar": "dodgerblue", "colorTaf": "dodgerblue", "rawMetar": "METAR LEAG 221600Z AUTO 10006KT 060V150 CAVOK 26/20 Q1016=\n", "visibility": 10000.0, "ceiling": "NSC", "hazard": "NSW", "rawTaf": "TAF LEAG 221400Z 2215/2315 08006KT 9999 FEW020 </br>&emsp;&emsp;TX27/2314Z TN22/2305Z=\n", "typeMetar": "auto", "lng": -5.441, "lat": 36.129, "isNil": "false"}}, {"type": "Feature", "geometry": {"type": "Point", "coordinates": [12.252, 41.794]}, "properties": {"name": "Roma-Fiumicino", "ind": "LIRF", "omae": "int", "colorMetar": "dodgerblue", "colorTaf": "dodgerblue", "rawMetar": "METAR LIRF 221550Z 31005KT 270V350 9999 VCTS FEW025CB 29/18 Q1018 NOSIG=\n", "visibility": 9999.0, "ceiling": "NSC", "hazard": "NSW", "rawTaf": "TAF LIRF 221100Z 2212/2318 06010KT 9999 FEW030 </br>&emsp;&emsp;BECMG 2212/2214 24010KT </br>&emsp;&emsp;TEMPO 2212/2216 TSRA </br>&emsp;&emsp;BECMG 2216/2218 VRB05KT </br>&emsp;&emsp;TEMPO 2301/2304 2000 BR BKN008 </br>&emsp;&emsp;BECMG 2310/2312 25012KT=\n", "typeMetar": "metar", "lng": 12.252, "lat": 41.794, "isNil": "true"}}, {"type": "Feature", "geometry": {"type": "Point", "coordinates": [12.595, 41.799]}, "properties": {"name": "Roma-Ciampino", "ind": "LIRA", "omae": "int", "colorMetar": "lime", "colorTaf": "dodgerblue", "rawMetar": "METAR LIRA 221550Z 20016G34KT 160V230 4000 TSRA SCT005 SCT020CB BKN040 22/17 Q1019=\n", "visibility": 4000.0, "ceiling": 4000.0, "hazard": [" TSRA"], "rawTaf": "TAF LIRA 221100Z 2212/2312 08007KT 9999 SCT040 </br>&emsp;&emsp;BECMG 2212/2214 24010KT </br>&emsp;&emsp;PROB40 TEMPO 2212/2217 TSRA </br>&emsp;&emsp;BECMG 2216/2218 VRB05KT </br>&emsp;&emsp;BECMG 2310/2312 24012KT=\n", "typeMetar": "metar", "lng": 12.595, "lat": 41.799, "isNil": "true"}}, {"type": "Feature", "geometry": {"type": "Point", "coordinates": [2.36, 48.725]}, "properties": {"name": "Paris-Orly", "ind": "LFPO", "omae": "int", "colorMetar": "dodgerblue", "colorTaf": "dodgerblue", "rawMetar": "METAR LFPO 221600Z 24007KT 200V320 CAVOK 29/14 Q1016 NOSIG=\n", "visibility": 10000.0, "ceiling": "NSC", "hazard": "NSW", "rawTaf": "TAF LFPO 221100Z 2212/2318 28008KT CAVOK </br>&emsp;&emsp;PROB30 TEMPO 2304/2307 BKN014=\n", "typeMetar": "metar", "lng": 2.36, "lat": 48.725, "isNil": "true"}}, {"type": "Feature", "geometry": {"type": "Point", "coordinates": [2.55, 49.013]}, "properties": {"name": "Paris-Charles de Gaulle ", "ind": "LFPG", "omae": "int", "colorMetar": "dodgerblue", "colorTaf": "dodgerblue", "rawMetar": "METAR LFPG 221600Z AUTO 31007KT 250V360 CAVOK 29/13 Q1016 NOSIG=\n", "visibility": 10000.0, "ceiling": "NSC", "hazard": "NSW", "rawTaf": "TAF LFPG 221100Z 2212/2318 29010KT CAVOK </br>&emsp;&emsp;TX29/2216Z TN17/2304Z </br>&emsp;&emsp;PROB40 TEMPO 2312/2316 28015G25KT=\n", "typeMetar": "auto", "lng": 2.55, "lat": 49.013, "isNil": "true"}}, {"type": "Feature", "geometry": {"type": "Point", "coordinates": [4.748, 52.304]}, "properties": {"name": "Amsterdam-Schiphol", "ind": "EHAM", "omae": "int", "colorMetar": "dodgerblue", "colorTaf": "dodgerblue", "rawMetar": "METAR EHAM 221555Z 25017KT 220V300 CAVOK 24/13 Q1012 NOSIG=\n", "visibility": 10000.0, "ceiling": "NSC", "hazard": "NSW", "rawTaf": "TAF EHAM 221114Z 2212/2318 24014KT CAVOK </br>&emsp;&emsp;BECMG 2305/2308 28015G25KT </br>&emsp;&emsp;TEMPO 2306/2309 29020G32KT 7000 RA SHRA FEW018TCU BKN025 </br>&emsp;&emsp;BECMG 2314/2317 25014KT=\n", "typeMetar": "metar", "lng": 4.748, "lat": 52.304, "isNil": "false"}}, {"type": "Feature", "geometry": {"type": "Point", "coordinates": [-6.27, 53.422]}, "properties": {"name": "Dublin", "ind": "EIDW", "omae": "int", "colorMetar": "dodgerblue", "colorTaf": "lime", "rawMetar": "METAR EIDW 221600Z 24012G22KT 200V280 9999 FEW010 SCT025 BKN050 18/12 Q1006 NOSIG=\n", "visibility": 9999.0, "ceiling": 5000.0, "hazard": "NSW", "rawTaf": "TAF EIDW 221100Z 2212/2312 23010KT 9999 FEW010 BKN020 </br>&emsp;&emsp;TEMPO 2212/2312 25015G25KT </br>&emsp;&emsp;PROB30 TEMPO 2212/2217 6000 -SHRA BKN012=\n", "typeMetar": "metar", "lng": -6.27, "lat": 53.422, "isNil": "false"}}, {"type": "Feature", "geometry": {"type": "Point", "coordinates": [-0.456, 51.471]}, "properties": {"name": "Londres-Heathrow", "ind": "EGLL", "omae": "int", "colorMetar": "dodgerblue", "colorTaf": "dodgerblue", "rawMetar": "METAR EGLL 221550Z AUTO 22015G25KT 9999 SCT033 SCT047 23/14 Q1012 NOSIG=\n", "visibility": 9999.0, "ceiling": "NSC", "hazard": "NSW", "rawTaf": "TAF EGLL 221111Z 2212/2318 24015KT 9999 FEW020 </br>&emsp;&emsp;PROB30 TEMPO 2212/2224 25015G25KT </br>&emsp;&emsp;PROB40 TEMPO 2301/2306 6000 RA BKN014=\n", "typeMetar": "auto", "lng": -0.456, "lat": 51.471, "isNil": "false"}}, {"type": "Feature", "geometry": {"type": "Point", "coordinates": [8.556, 50.041]}, "properties": {"name": "Frankfurt-Hessen", "ind": "EDDF", "omae": "int", "colorMetar": "dodgerblue", "colorTaf": "dodgerblue", "rawMetar": "METAR EDDF 221550Z AUTO 18010KT 150V230 CAVOK 36/11 Q1013 NOSIG=\n", "visibility": 10000.0, "ceiling": "NSC", "hazard": "NSW", "rawTaf": "TAF EDDF 221320Z 2213/2318 22009KT CAVOK </br>&emsp;&emsp;PROB30 TEMPO 2221/2301 25020G40KT 2000 TSRA BKN030CB </br>&emsp;&emsp;BECMG 2223/2301 25004KT </br>&emsp;&emsp;BECMG 2307/2310 25015G25KT </br>&emsp;&emsp;TEMPO 2311/2318 27020G35KT=\n", "typeMetar": "auto", "lng": 8.556, "lat": 50.041, "isNil": "false"}}, {"type": "Feature", "geometry": {"type": "Point", "coordinates": [28.742, 41.263]}, "properties": {"name": "Estambul", "ind": "LTFM", "omae": "int", "colorMetar": "dodgerblue", "colorTaf": "dodgerblue", "rawMetar": "METAR LTFM 221550Z 05011KT 350V070 9999 FEW032 22/12 Q1019 NOSIG=\n", "visibility": 9999.0, "ceiling": "NSC", "hazard": "NSW", "rawTaf": "TAF LTFM 221040Z 2212/2318 04017G27KT 9999 SCT035 </br>&emsp;&emsp;BECMG 2214/2217 CAVOK </br>&emsp;&emsp;BECMG 2217/2220 17008KT </br>&emsp;&emsp;BECMG 2306/2309 34010KT </br>&emsp;&emsp;BECMG 2313/2316 04005KT=\n", "typeMetar": "metar", "lng": 28.742, "lat": 41.263, "isNil": "false"}}, {"type": "Feature", "geometry": {"type": "Point", "coordinates": [-0.419, 43.38]}, "properties": {"name": "Aeropuerto de Pau-Pyr\u00e9n\u00e9es", "ind": "LFBP", "omae": "int", "colorMetar": "dodgerblue", "colorTaf": "dodgerblue", "rawMetar": "METAR LFBP 221600Z AUTO VRB02KT 9999 FEW027 27/20 Q1019 </br>&emsp;&emsp;TEMPO FEW080CB=\n", "visibility": 9999.0, "ceiling": "NSC", "hazard": "NSW", "rawTaf": "TAF LFBP 221100Z 2212/2312 VRB03KT 9999 BKN016 </br>&emsp;&emsp;BECMG 2212/2214 CAVOK TEMPO 2215/2221 32010KT </br>&emsp;&emsp;PROB30 TEMPO 2215/2220 FEW080CB </br>&emsp;&emsp;BECMG 2222/2224 BKN020 </br>&emsp;&emsp;PROB40 TEMPO 2300/2308 BKN012 </br>&emsp;&emsp;BECMG 2310/2312 CAVOK=\n", "typeMetar": "auto", "lng": -0.419, "lat": 43.38, "isNil": "false"}}, {"type": "Feature", "geometry": {"type": "Point", "coordinates": [-1.523, 43.468]}, "properties": {"name": "Biarritz", "ind": "LFBZ", "omae": "int", "colorMetar": "dodgerblue", "colorTaf": "lime", "rawMetar": "METAR LFBZ 221600Z AUTO 31008KT 9999 OVC025 23/18 Q1019 </br>&emsp;&emsp;TEMPO SCT080CB=\n", "visibility": 9999.0, "ceiling": 2500.0, "hazard": "NSW", "rawTaf": "TAF LFBZ 221100Z 2212/2312 32005KT 9999 BKN020 </br>&emsp;&emsp;TEMPO 2216/2220 34010KT SCT080CB </br>&emsp;&emsp;PROB40 TEMPO 2218/2220 -SHRA BKN012 SCT060CB </br>&emsp;&emsp;PROB40 TEMPO 2220/2306 BKN010=\n", "typeMetar": "auto", "lng": -1.523, "lat": 43.468, "isNil": "false"}}]}